{
  "type": "FeatureCollection",
  "crs": { "type": "name", "properties": { "name": "urn:ogc:def:crs:OGC:1.3:CRS84" } },
  "features": [
    {
      "type": "Feature",
      "properties": { "name": "成都", "level": "city" },
      "geometry": {
        "type": "Polygon",
        "coordinates": [[
          [103.5, 31.0], [104.5, 31.5], [105.5, 31.0], [105.5, 30.0], [104.5, 29.5],
          [103.5, 30.0], [103.5, 31.0]
        ]]
      }
    },
    {
      "type": "Feature",
      "properties": { "name": "杭州", "level": "city" },
      "geometry": {
        "type": "Polygon",
        "coordinates": [[
          [118.5, 30.5], [119.5, 31.0], [120.5, 30.5], [120.5, 29.5], [119.5, 29.0],
          [118.5, 29.5], [118.5, 30.5]
        ]]
      }
    },
    {
      "type": "Feature",
      "properties": { "name": "广州", "level": "city" },
      "geometry": {
        "type": "Polygon",
        "coordinates": [[
          [112.5, 23.5], [113.5, 24.0], [114.5, 23.5], [114.5, 22.5], [113.5, 22.5],
          [112.5, 22.5], [112.5, 23.5]
        ]]
      }
    },
    {
      "type": "Feature",
      "properties": { "name": "武汉", "level": "city" },
      "geometry": {
        "type": "Polygon",
        "coordinates": [[
          [113.5, 31.5], [114.5, 31.5], [115.5, 31.0], [115.5, 30.0], [114.5, 29.5],
          [113.5, 30.0], [113.5, 31.5]
        ]]
      }
    }
  ]
}
